NORAD_CAT_ID,OBJECT_NAME,OBJECT_TYPE,EPOCH,MEAN_MOTION,ECCENTRICITY,INCLINATION,RA_OF_ASC_NODE,ARG_OF_PERICENTER,MEAN_ANOMALY,BSTAR,MEAN_MOTION_DOT,MEAN_MOTION_DDOT,TLE_LINE0,TLE_LINE1,TLE_LINE2,SEMIMAJOR_AXIS,PERIOD,APOGEE,PERIGEE,DECAYED
56493.0,STARLINK-5841,PAYLOAD,2024-02-01 14:00:01,15.21436666,0.0003012,69.9992,218.9708,263.686,7.5412,-0.02406,-0.00506198,0.0,0 STARLINK-5841,1 56493U 23064AX  24032.58334491 -.00506198  00000-0 -24060-1 0  9994,2 56493  69.9992 218.9708 0003012 263.6860   7.5412 15.21436666 42167,6879.643,94.647,503.58,499.436,0.0
56493.0,STARLINK-5841,PAYLOAD,2024-02-01 22:00:00,15.209999,0.0002962,69.9991,218.0998,271.3823,24.8766,-0.047504,-0.00974416,0.0,0 STARLINK-5841,1 56493U 23064AX  24032.91667824 -.00974416  00000-0 -47504-1 0  9990,2 56493  69.9991 218.0998 0002962 271.3823  24.8766 15.20999900 42210,6880.96,94.675,504.863,500.787,0.0
56493.0,STARLINK-5841,PAYLOAD,2024-02-02 10:55:17,15.20548372,0.0003406,69.9985,216.6969,256.841,103.2381,-0.0037044,-0.00080516,0.0,0 STARLINK-5841,1 56493U 23064AX  24033.45506524 -.00080516  00000-0 -37044-2 0  9997,2 56493  69.9985 216.6969 0003406 256.8410 103.2381 15.20548372 42295,6882.322,94.703,506.532,501.843,0.0
56493.0,STARLINK-5841,PAYLOAD,2024-02-02 14:04:57,15.20395272,0.0002602,70.0,216.3561,277.7205,82.367,-0.0046949,-0.00101266,0.0,0 STARLINK-5841,1 56493U 23064AX  24033.58677646 -.00101266  00000-0 -46949-2 0  9995,2 56493  70.0000 216.3561 0002602 277.7205  82.3670 15.20395272 41962,6882.784,94.712,506.44,502.859,0.0
56493.0,STARLINK-5841,PAYLOAD,2024-02-02 22:00:00,15.18984452,0.0003241,69.9992,215.4923,273.0273,93.572,-0.045868,-0.00893183,0.0,0 STARLINK-5841,1 56493U 23064AX  24033.91667824 -.00893183  00000-0 -45868-1 0  9993,2 56493  69.9992 215.4923 0003241 273.0273  93.5720 15.18984452 42361,6887.046,94.8,511.143,506.678,0.0
56493.0,STARLINK-5841,PAYLOAD,2024-02-03 14:00:01,15.17719496,0.0003382,69.9994,213.7586,268.3984,141.1491,-0.051209,-0.00956312,0.0,0 STARLINK-5841,1 56493U 23064AX  24034.58334491 -.00956312  00000-0 -51209-1 0  9998,2 56493  69.9994 213.7586 0003382 268.3984 141.1491 15.17719496 42471,6890.872,94.879,515.067,510.406,0.0
56493.0,STARLINK-5841,PAYLOAD,2024-02-03 22:00:00,15.17021351,0.0003352,69.9991,212.893,274.7903,155.0819,-0.048056,-0.00884876,0.0,0 STARLINK-5841,1 56493U 23064AX  24034.91667824 -.00884876  00000-0 -48056-1 0  9995,2 56493  69.9991 212.8930 0003352 274.7903 155.0819 15.17021351  5967,6892.986,94.923,517.161,512.54,0.0
56493.0,STARLINK-5841,PAYLOAD,2024-02-04 14:00:01,15.15763013,0.0003309,69.9992,211.1644,269.3434,198.7799,-0.054286,-0.00958293,0.0,0 STARLINK-5841,1 56493U 23064AX  24035.58334491 -.00958293  00000-0 -54286-1 0  9997,2 56493  69.9992 211.1644 0003309 269.3434 198.7799 15.15763013 42624,6896.8,95.002,520.947,516.383,0.0
56493.0,STARLINK-5841,PAYLOAD,2024-02-05 00:00:00,15.14926973,0.0003233,69.9987,210.0858,272.8733,307.5874,-0.053793,-0.00929514,0.0,0 STARLINK-5841,1 56493U 23064AX  24036.00001157 -.00929514  00000-0 -53793-1 0  9991,2 56493  69.9987 210.0858 0003233 272.8733 307.5874 15.14926973  5987,6899.337,95.054,523.433,518.972,0.0
56493.0,STARLINK-5841,PAYLOAD,2024-02-05 06:00:00,15.14407535,0.0003242,69.9989,209.4392,270.5119,232.7717,-0.052071,-0.00889608,0.0,0 STARLINK-5841,1 56493U 23064AX  24036.25001157 -.00889608  00000-0 -52071-1 0  9995,2 56493  69.9989 209.4392 0003242 270.5119 232.7717 15.14407535 42723,6900.915,95.087,525.017,520.543,0.0
56493.0,STARLINK-5841,PAYLOAD,2024-02-05 14:00:01,15.13805648,0.0003192,69.999,208.578,269.563,250.097,-0.05746,-0.00959426,0.0,0 STARLINK-5841,1 56493U 23064AX  24036.58334491 -.00959426  00000-0 -57460-1 0  9994,2 56493  69.9990 208.5780 0003192 269.5630 250.0970 15.13805648  5691,6902.744,95.124,526.812,522.406,0.0
56493.0,STARLINK-5841,PAYLOAD,2024-02-05 22:00:00,15.13107896,0.000318,69.9987,207.7176,275.5096,259.7805,-0.053717,-0.00885045,0.0,0 STARLINK-5841,1 56493U 23064AX  24036.91667824 -.00885045  00000-0 -53717-1 0  9996,2 56493  69.9987 207.7176 0003180 275.5096 259.7805 15.13107896 42826,6904.866,95.168,528.927,524.535,0.0
56493.0,STARLINK-5841,PAYLOAD,2024-02-06 14:00:01,15.11847617,0.0003235,69.9989,205.9994,269.341,294.8769,-0.060591,-0.00957761,0.0,0 STARLINK-5841,1 56493U 23064AX  24037.58335648 -.00957761  00000-0 -60591-1 0  9999,2 56493  69.9989 205.9994 0003235 269.3410 294.8769 15.11847617 42928,6908.703,95.248,532.803,528.333,0.0
56493.0,STARLINK-5841,PAYLOAD,2024-02-06 22:00:00,15.1115526,0.0003196,69.9986,205.1416,274.9478,302.4883,-0.057139,-0.00890989,0.0,0 STARLINK-5841,1 56493U 23064AX  24037.91667824 -.00890989  00000-0 -57139-1 0  9992,2 56493  69.9986 205.1416 0003196 274.9478 302.4883 15.11155260  5904,6910.813,95.291,534.886,530.469,0.0
56493.0,STARLINK-5841,PAYLOAD,2024-02-07 06:00:00,15.10487623,0.0003206,69.9987,204.2846,270.2283,319.6999,-0.057257,-0.00877454,0.0,0 STARLINK-5841,1 56493U 23064AX  24038.25001157 -.00877454  00000-0 -57257-1 0  9994,2 56493  69.9987 204.2846 0003206 270.2283 319.6999 15.10487623 43020,6912.849,95.333,536.93,532.498,0.0
56493.0,STARLINK-5841,PAYLOAD,2024-02-07 14:00:01,15.09889984,0.0003272,69.9989,203.4287,269.627,331.9827,-0.063935,-0.00957204,0.0,0 STARLINK-5841,1 56493U 23064AX  24038.58334491 -.00957204  00000-0 -63935-1 0  9992,2 56493  69.9989 203.4287 0003272 269.6270 331.9827 15.09889984  5965,6914.673,95.371,538.8,534.275,0.0
56493.0,STARLINK-5841,PAYLOAD,2024-02-07 22:00:00,15.09203293,0.0003234,69.9986,202.5735,275.017,337.5244,-0.060845,-0.00898364,0.0,0 STARLINK-5841,1 56493U 23064AX  24038.91667824 -.00898364  00000-0 -60845-1 0  9996,2 56493  69.9986 202.5735 0003234 275.0170 337.5244 15.09203293 43126,6916.77,95.415,540.872,536.398,0.0
56493.0,STARLINK-5841,PAYLOAD,2024-02-08 14:00:01,15.07931898,0.0003321,69.9991,200.8658,270.7496,1.2743,-0.067372,-0.00955936,0.0,0 STARLINK-5841,1 56493U 23064AX  24039.58334491 -.00955936  00000-0 -67372-1 0  9992,2 56493  69.9991 200.8658 0003321 270.7496   1.2743 15.07931898 43224,6920.657,95.495,544.821,540.224,0.0
56493.0,STARLINK-5841,PAYLOAD,2024-02-08 22:00:01,15.07251405,0.0003263,69.9988,200.0131,275.8086,4.8607,-0.064778,-0.00906084,0.0,0 STARLINK-5841,1 56493U 23064AX  24039.91668981 -.00906084  00000-0 -64778-1 0  9990,2 56493  69.9988 200.0131 0003263 275.8086   4.8607 15.07251405  5959,6922.74,95.538,546.864,542.346,0.0
56493.0,STARLINK-5841,PAYLOAD,2024-02-09 06:00:02,15.06568024,0.0003237,69.9992,199.1614,271.1412,17.3321,-0.06288,-0.008663,0.0,0 STARLINK-5841,1 56493U 23064AX  24040.25002315 -.00866300  00000-0 -62880-1 0  9990,2 56493  69.9992 199.1614 0003237 271.1412  17.3321 15.06568024 43323,6924.834,95.581,548.94,544.457,0.0
56493.0,STARLINK-5841,PAYLOAD,2024-02-09 14:00:01,15.05975219,0.0003304,69.9995,198.3107,272.0911,23.3067,-0.071137,-0.00956957,0.0,0 STARLINK-5841,1 56493U 23064AX  24040.58334491 -.00956957  00000-0 -71137-1 0  9992,2 56493  69.9995 198.3107 0003304 272.0911  23.3067 15.05975219  5647,6926.651,95.619,550.804,546.227,0.0
56493.0,STARLINK-5841,PAYLOAD,2024-02-09 22:00:00,15.05298734,0.0003279,69.9992,197.4606,277.0294,24.6021,-0.068855,-0.00912945,0.0,0 STARLINK-5841,1 56493U 23064AX  24040.91667824 -.00912945  00000-0 -68855-1 0  9990,2 56493  69.9992 197.4606 0003279 277.0294  24.6021 15.05298734 43420,6928.726,95.662,552.863,548.319,0.0
56493.0,STARLINK-5841,PAYLOAD,2024-02-10 14:00:01,15.04016627,0.0003331,69.9999,195.7633,273.6987,38.0323,-0.074807,-0.00965918,0.0,0 STARLINK-5841,1 56493U 23064AX  24041.58334491 -.00965918  00000-0 -74807-1 0  9997,2 56493  69.9999 195.7633 0003331 273.6987  38.0323 15.04016627  5800,6932.663,95.744,556.837,552.219,0.0
56493.0,STARLINK-5841,PAYLOAD,2024-02-10 22:00:01,15.03344942,0.0003303,69.9996,194.9158,278.0945,37.5844,-0.073038,-0.00918523,0.0,0 STARLINK-5841,1 56493U 23064AX  24041.91668981 -.00918523  00000-0 -73038-1 0  9993,2 56493  69.9996 194.9158 0003303 278.0945  37.5844 15.03344942 43573,6934.728,95.786,558.883,554.302,0.0
56493.0,STARLINK-5841,PAYLOAD,2024-02-11 14:00:01,15.02059084,0.0003342,70.0002,193.2235,274.8012,46.2221,-0.078723,-0.0096492,0.0,0 STARLINK-5841,1 56493U 23064AX  24042.58334491 -.00964920  00000-0 -78723-1 0  9991,2 56493  70.0002 193.2235 0003342 274.8012  46.2221 15.02059084  5960,6938.685,95.868,562.869,558.231,0.0
56493.0,STARLINK-5841,PAYLOAD,2024-02-11 22:00:01,15.01389808,0.0003322,69.9999,192.3785,278.8555,43.7682,-0.077298,-0.00922584,0.0,0 STARLINK-5841,1 56493U 23064AX  24042.91668981 -.00922584  00000-0 -77298-1 0  9998,2 56493  69.9999 192.3785 0003322 278.8555  43.7682 15.01389808 43724,6940.747,95.911,564.917,560.306,0.0
56493.0,STARLINK-5841,PAYLOAD,2024-02-12 14:00:01,15.00069472,0.0003264,70.0005,190.6913,275.7087,47.5737,-0.075841,-0.00877672,0.0,0 STARLINK-5841,1 56493U 23064AX  24043.58334491 -.00877672  00000-0 -75841-1 0  9997,2 56493  70.0005 190.6913 0003264 275.7087  47.5737 15.00069472  5957,6944.819,95.996,568.951,564.417,0.0
56493.0,STARLINK-5841,PAYLOAD,2024-02-12 22:00:00,14.99325923,0.0003216,70.0001,189.8489,279.9118,42.5662,-0.0034901,-0.00042569,0.0,0 STARLINK-5841,1 56493U 23064AX  24043.91667824 -.00042569  00000-0 -34901-2 0  9995,2 56493  70.0001 189.8489 0003216 279.9118  42.5662 14.99325923 43877,6947.115,96.043,571.214,566.746,0.0
56493.0,STARLINK-5841,PAYLOAD,2024-02-13 14:00:01,14.99297593,0.0003281,70.0005,188.1655,273.808,45.9379,-0.00159,-0.00019494,0.0,0 STARLINK-5841,1 56493U 23064AX  24044.58334491 -.00019494  00000-0 -15900-2 0  9999,2 56493  70.0005 188.1655 0003281 273.8080  45.9379 14.99297593  5951,6947.202,96.045,571.347,566.788,0.0
56493.0,STARLINK-5841,PAYLOAD,2024-02-13 22:00:00,14.99308536,0.0003336,70.0001,187.3237,278.0162,40.3728,0.00079282,9.622e-05,0.0,0 STARLINK-5841,1 56493U 23064AX  24044.91667824  .00009622  00000-0  79282-3 0  9999,2 56493  70.0001 187.3237 0003336 278.0162  40.3728 14.99308536 44021,6947.168,96.044,571.351,566.716,0.0
